H1 CPF 01  gfz 2021 05 08 00  6281 tandemx   
H2 1003001  6202 36605    2021 05 08 00 59 42 2021 05 13 00 00 42   120 1 1  0 0 0
H9
10 0 59344  12942.000000  0    5231676.294   4137868.435   1715749.501
10 0 59344  13062.000000  0    5474685.177   4098550.823    827100.957
10 0 59344  13182.000000  0    5620656.913   3984188.944    -76107.875
10 0 59344  13302.000000  0    5665803.013   3798543.851   -977978.619
10 0 59344  13422.000000  0    5608193.356   3546681.892  -1862653.761
10 0 59344  13542.000000  0    5447806.783   3234847.947  -2714603.106
10 0 59344  13662.000000  0    5186543.075   2870316.668  -3518901.236
10 0 59344  13782.000000  0    4828197.900   2461226.197  -4261491.450
10 0 59344  13902.000000  0    4378399.413   2016396.946  -4929431.636
10 0 59344  14022.000000  0    3844509.623   1545140.677  -5511113.762
10 0 59344  14142.000000  0    3235495.155   1057066.479  -5996456.986
10 0 59344  14262.000000  0    2561769.156    561886.475  -6377072.312
10 0 59344  14382.000000  0    1835008.226     69225.388  -6646395.445
10 0 59344  14502.000000  0    1067949.943   -411562.239  -6799789.158
10 0 59344  14622.000000  0     274171.248   -871565.776  -6834615.969
10 0 59344  14742.000000  0    -532148.153  -1302479.169  -6750276.726
10 0 59344  14862.000000  0   -1336472.130  -1696746.360  -6548219.732
10 0 59344  14982.000000  0   -2124164.228  -2047691.114  -6231919.405
10 0 59344  15102.000000  0   -2880748.143  -2349628.561  -5806822.240
10 0 59344  15222.000000  0   -3592168.844  -2597957.147  -5280263.400
10 0 59344  15342.000000  0   -4245053.811  -2789230.842  -4661352.663
10 0 59344  15462.000000  0   -4826967.526  -2921208.596  -3960827.570
10 0 59344  15582.000000  0   -5326653.769  -2992879.906  -3190877.054
10 0 59344  15702.000000  0   -5734261.775  -3004465.988  -2364936.678
10 0 59344  15822.000000  0   -6041549.810  -2957395.631  -1497457.557
10 0 59344  15942.000000  0   -6242060.812  -2854256.186   -603653.488
10 0 59344  16062.000000  0   -6331265.404  -2698720.005    300769.752
10 0 59344  16182.000000  0   -6306668.265  -2495448.090   1199896.889
10 0 59344  16302.000000  0   -6167874.009  -2249973.170   2077892.912
10 0 59344  16422.000000  0   -5916608.597  -1968564.547   2919291.467
10 0 59344  16542.000000  0   -5556699.437  -1658079.038   3709274.593
10 0 59344  16662.000000  0   -5094012.370  -1325801.462   4433941.377
10 0 59344  16782.000000  0   -4536346.416   -979278.443   5080554.713
10 0 59344  16902.000000  0   -3893294.121   -626151.447   5637763.620
10 0 59344  17022.000000  0   -3176068.706   -273991.492   6095800.685
10 0 59344  17142.000000  0   -2397300.046     69861.300   6446649.106
10 0 59344  17262.000000  0   -1570805.254    398447.936   6684176.549
10 0 59344  17382.000000  0    -711339.708    705328.600   6804236.060
10 0 59344  17502.000000  0     165667.468    984707.372   6804733.545
10 0 59344  17622.000000  0    1044389.740   1231540.772   6685661.706
10 0 59344  17742.000000  0    1908887.853   1441629.064   6449100.248
10 0 59344  17862.000000  0    2743398.082   1611687.930   6099181.566
10 0 59344  17982.000000  0    3532620.317   1739399.865   5642023.794
10 0 59344  18102.000000  0    4262001.710   1823444.438   5085629.003
10 0 59344  18222.000000  0    4918008.483   1863507.452   4439749.465
10 0 59344  18342.000000  0    5488385.385   1860269.257   3715723.817
10 0 59344  18462.000000  0    5962395.069   1815370.356   2926278.575
10 0 59344  18582.000000  0    6331027.567   1731356.136   2085304.503
10 0 59344  18702.000000  0    6587181.790   1611601.615   1207610.049
10 0 59344  18822.000000  0    6725808.604   1460217.669    308653.726
10 0 59344  18942.000000  0    6744014.189   1281941.896   -595735.610
10 0 59344  19062.000000  0    6641119.722   1082015.987  -1489647.402
10 0 59344  19182.000000  0    6418675.672    866051.937  -2357376.776
10 0 59344  19302.000000  0    6080432.655    639891.904  -3183707.168
10 0 59344  19422.000000  0    5632268.006    409466.076  -3954181.375
10 0 59344  19542.000000  0    5082071.115    180651.076  -4655355.534
10 0 59344  19662.000000  0    4439590.707    -40867.591  -5275029.498
10 0 59344  19782.000000  0    3716250.968   -249725.012  -5802451.021
10 0 59344  19902.000000  0    2924940.162   -440996.182  -6228493.337
10 0 59344  20022.000000  0    2079774.312   -610303.058  -6545802.342
10 0 59344  20142.000000  0    1195843.808   -753906.999  -6748911.145
10 0 59344  20262.000000  0     288946.404   -868785.950  -6834325.569
10 0 59344  20382.000000  0    -624691.161   -952693.779  -6800577.162
10 0 59344  20502.000000  0   -1528696.152  -1004202.287  -6648245.373
10 0 59344  20622.000000  0   -2406836.803  -1022724.940  -6379949.061
10 0 59344  20742.000000  0   -3243307.075  -1008521.981  -6000304.978
10 0 59344  20862.000000  0   -4023005.445   -962687.327  -5515857.793
10 0 59344  20982.000000  0   -4731808.025   -887117.039  -4934979.059
10 0 59344  21102.000000  0   -5356827.662   -784459.565  -4267733.680
10 0 59344  21222.000000  0   -5886655.225   -658049.184  -3525716.799
10 0 59344  21342.000000  0   -6311578.982   -511822.756  -2721861.028
10 0 59344  21462.000000  0   -6623774.860   -350221.449  -1870216.076
10 0 59344  21582.000000  0   -6817464.087   -178080.470   -985705.296
10 0 59344  21702.000000  0   -6889033.290      -507.295    -83860.330
10 0 59344  21822.000000  0   -6837109.065    177247.398    819458.287
10 0 59344  21942.000000  0   -6662590.020    349922.542   1708346.861
10 0 59344  22062.000000  0   -6368633.521    512379.906   2567147.801
10 0 59344  22182.000000  0   -5960596.111    659734.654   3380734.662
10 0 59344  22302.000000  0   -5445928.944    787479.852   4134786.030
10 0 59344  22422.000000  0   -4834032.343    891601.401   4816041.589
10 0 59344  22542.000000  0   -4136073.677    968680.567   5412536.060
10 0 59344  22662.000000  0   -3364774.205   1015982.039   5913806.953
10 0 59344  22782.000000  0   -2534168.986   1031525.474   6311074.721
10 0 59344  22902.000000  0   -1659344.379   1014139.393   6597391.948
10 0 59344  23022.000000  0    -756158.301    963496.689   6767758.161
10 0 59344  23142.000000  0     159048.739    880130.338   6819200.613
10 0 59344  23262.000000  0    1069748.591    765429.508   6750822.455
10 0 59344  23382.000000  0    1959522.666    621616.565   6563817.419
10 0 59344  23502.000000  0    2812356.814    451704.928   6261450.624
10 0 59344  23622.000000  0    3612930.308    259438.266   5849006.131
10 0 59344  23742.000000  0    4346893.979     49211.812   5333699.720
10 0 59344  23862.000000  0    5001131.970   -174022.759   4724558.557
10 0 59344  23982.000000  0    5564003.070   -404867.245   4032268.686
10 0 59344  24102.000000  0    6025557.397   -637599.230   3268992.012
10 0 59344  24222.000000  0    6377723.256   -866304.415   2448153.872
10 0 59344  24342.000000  0    6614457.744  -1085015.654   1584204.082
10 0 59344  24462.000000  0    6731857.113  -1287855.643    692358.372
10 0 59344  24582.000000  0    6728227.409  -1469180.309   -211675.870
10 0 59344  24702.000000  0    6604109.244  -1623718.597  -1111986.363
10 0 59344  24822.000000  0    6362256.452  -1746704.190  -1992744.592
10 0 59344  24942.000000  0    6007570.714  -1833996.883  -2838492.235
10 0 59344  25062.000000  0    5546993.262  -1882190.118  -3634417.322
10 0 59344  25182.000000  0    4989358.465  -1888702.119  -4366614.967
10 0 59344  25302.000000  0    4345213.638  -1851848.634  -5022328.460
10 0 59344  25422.000000  0    3626608.642  -1770896.619  -5590166.452
10 0 59344  25542.000000  0    2846861.062  -1646097.371  -6060291.532
10 0 59344  25662.000000  0    2020304.725  -1478698.359  -6424579.329
10 0 59344  25782.000000  0    1162024.563  -1270934.103  -6676748.902
10 0 59344  25902.000000  0     287582.193  -1025997.167  -6812460.005
10 0 59344  26022.000000  0    -587261.754   -747989.593  -6829379.507
10 0 59344  26142.000000  0   -1446824.997   -441855.382  -6727216.827
10 0 59344  26262.000000  0   -2275778.518   -113294.485  -6507728.415
10 0 59344  26382.000000  0   -3059413.497    231340.179  -6174689.706
10 0 59344  26502.000000  0   -3783896.852    585161.131  -5733837.700
10 0 59344  26622.000000  0   -4436514.943    940879.140  -5192782.804
10 0 59344  26742.000000  0   -5005899.176   1290947.734  -4560889.077
10 0 59344  26862.000000  0   -5482231.543   1627719.089  -3849124.389
10 0 59344  26982.000000  0   -5857423.100   1943606.848  -3069878.898
10 0 59344  27102.000000  0   -6125262.640   2231251.698  -2236756.344
10 0 59344  27222.000000  0   -6281531.613   2483687.206  -1364339.916
10 0 59344  27342.000000  0   -6324081.527   2694501.835   -467936.134
10 0 59344  27462.000000  0   -6252871.029   2857992.276    436698.729
10 0 59344  27582.000000  0   -6069959.616   2969304.123   1333643.574
10 0 59344  27702.000000  0   -5779458.570   3024556.697   2207101.523
10 0 59344  27822.000000  0   -5387440.186   3020947.632   3041686.985
10 0 59344  27942.000000  0   -4901808.827   2956835.383   3822704.476
10 0 59344  28062.000000  0   -4332135.232   2831796.374   4536413.365
10 0 59344  28182.000000  0   -3689460.245   2646656.703   5170271.276
10 0 59344  28302.000000  0   -2986073.817   2403498.276   5713153.875
10 0 59344  28422.000000  0   -2235272.504   2105639.091   6155547.943
10 0 59344  28542.000000  0   -1451101.512   1757587.483   6489713.048
10 0 59344  28662.000000  0    -648087.271   1364972.168   6709810.057
10 0 59344  28782.000000  0     159032.405    934449.358   6811996.220
10 0 59344  28902.000000  0     955578.192    473589.050   6794488.055
10 0 59344  29022.000000  0    1727195.160     -9257.774   6657590.271
10 0 59344  29142.000000  0    2460110.314   -505109.649   6403691.396
10 0 59344  29262.000000  0    3141378.438  -1004521.113   6037225.683
10 0 59344  29382.000000  0    3759113.252  -1497761.387   5564600.910
99
